{
  "type": "FeatureCollection",
  "features": [
    {
      "type": "Feature",
      "properties": {
        "norad_id": 44334,
        "name": "EUTELSAT 7C",
        "group": "eutelsat",
        "lat": 0.03734490895581781,
        "lon": -143.68121798085792,
        "alt_km": 35776.26143703264,
        "timestamp": "2025-12-24T07:45:05.870240+00:00",
        "meta_object_name": "EUTELSAT 7C",
        "meta_object_id": "2019-034B",
        "meta_epoch": "2025-12-23T21:43:32.557152",
        "meta_mean_motion": 1.00270668,
        "meta_eccentricity": 0.0003137,
        "meta_inclination": 0.0727,
        "meta_ra_of_asc_node": 178.4566,
        "meta_arg_of_pericenter": 78.1721,
        "meta_mean_anomaly": 168.9209,
        "meta_ephemeris_type": 0,
        "meta_classification_type": "U",
        "meta_norad_cat_id": 44334,
        "meta_element_set_no": 999,
        "meta_rev_at_epoch": 507,
        "meta_bstar": 0,
        "meta_mean_motion_dot": 6.9e-07,
        "meta_mean_motion_ddot": 0,
        "tle_line1": "1 44334U 19034B   25357.90523793  .00000069  00000+0  00000+0 0  9998",
        "tle_line2": "2 44334   0.0727 178.4566 0003137  78.1721 168.9209  1.00270668  5070"
      },
      "geometry": {
        "type": "Point",
        "coordinates": [
          -143.68121798085792,
          0.03734490895581781
        ]
      }
    },
    {
      "type": "Feature",
      "properties": {
        "norad_id": 44624,
        "name": "EUTELSAT 5 WEST B",
        "group": "eutelsat",
        "lat": -0.04952714331125084,
        "lon": -155.66314383732347,
        "alt_km": 35781.20742688634,
        "timestamp": "2025-12-24T07:45:05.870257+00:00",
        "meta_object_name": "EUTELSAT 5 WEST B",
        "meta_object_id": "2019-067A",
        "meta_epoch": "2025-12-23T21:40:02.892000",
        "meta_mean_motion": 1.00271348,
        "meta_eccentricity": 0.00030855,
        "meta_inclination": 0.0638,
        "meta_ra_of_asc_node": 341.7317,
        "meta_arg_of_pericenter": 290.1049,
        "meta_mean_anomaly": 140.8638,
        "meta_ephemeris_type": 0,
        "meta_classification_type": "U",
        "meta_norad_cat_id": 44624,
        "meta_element_set_no": 999,
        "meta_rev_at_epoch": 2267,
        "meta_bstar": 0,
        "meta_mean_motion_dot": -2.1e-07,
        "meta_mean_motion_ddot": 0,
        "tle_line1": "1 44624U 19067A   25357.90281125 -.00000021  00000+0  00000+0 0  9995",
        "tle_line2": "2 44624   0.0638 341.7317 0003085 290.1049 140.8638  1.00271348 22679"
      },
      "geometry": {
        "type": "Point",
        "coordinates": [
          -155.66314383732347,
          -0.04952714331125084
        ]
      }
    },
    {
      "type": "Feature",
      "properties": {
        "norad_id": 45027,
        "name": "EUTELSAT KONNECT",
        "group": "eutelsat",
        "lat": 0.05267677141715328,
        "lon": -143.44350264532636,
        "alt_km": 35783.45511522212,
        "timestamp": "2025-12-24T07:45:05.870269+00:00",
        "meta_object_name": "EUTELSAT KONNECT",
        "meta_object_id": "2020-005B",
        "meta_epoch": "2025-12-22T14:54:44.385984",
        "meta_mean_motion": 1.00271247,
        "meta_eccentricity": 0.00013494,
        "meta_inclination": 0.0714,
        "meta_ra_of_asc_node": 94.3931,
        "meta_arg_of_pericenter": 184.6433,
        "meta_mean_anomaly": 43.2748,
        "meta_ephemeris_type": 0,
        "meta_classification_type": "U",
        "meta_norad_cat_id": 45027,
        "meta_element_set_no": 999,
        "meta_rev_at_epoch": 2256,
        "meta_bstar": 0,
        "meta_mean_motion_dot": 7.1e-07,
        "meta_mean_motion_ddot": 0,
        "tle_line1": "1 45027U 20005B   25356.62134706  .00000071  00000+0  00000+0 0  9991",
        "tle_line2": "2 45027   0.0714  94.3931 0001349 184.6433  43.2748  1.00271247 22564"
      },
      "geometry": {
        "type": "Point",
        "coordinates": [
          -143.44350264532636,
          0.05267677141715328
        ]
      }
    },
    {
      "type": "Feature",
      "properties": {
        "norad_id": 49056,
        "name": "EUTELSAT QUANTUM",
        "group": "eutelsat",
        "lat": -0.030548445260955258,
        "lon": -102.94553782691058,
        "alt_km": 35773.21003517004,
        "timestamp": "2025-12-24T07:45:05.870280+00:00",
        "meta_object_name": "EUTELSAT QUANTUM",
        "meta_object_id": "2021-069B",
        "meta_epoch": "2025-12-23T21:55:08.946336",
        "meta_mean_motion": 1.00270689,
        "meta_eccentricity": 0.00034109,
        "meta_inclination": 0.0103,
        "meta_ra_of_asc_node": 9.2533,
        "meta_arg_of_pericenter": 272.4115,
        "meta_mean_anomaly": 187.5229,
        "meta_ephemeris_type": 0,
        "meta_classification_type": "U",
        "meta_norad_cat_id": 49056,
        "meta_element_set_no": 999,
        "meta_rev_at_epoch": 1617,
        "meta_bstar": 0,
        "meta_mean_motion_dot": 1.47e-06,
        "meta_mean_motion_ddot": 0,
        "tle_line1": "1 49056U 21069B   25357.91329799  .00000147  00000+0  00000+0 0  9993",
        "tle_line2": "2 49056   0.0103   9.2533 0003410 272.4115 187.5229  1.00270689 16174"
      },
      "geometry": {
        "type": "Point",
        "coordinates": [
          -102.94553782691058,
          -0.030548445260955258
        ]
      }
    },
    {
      "type": "Feature",
      "properties": {
        "norad_id": 53765,
        "name": "EUTELSAT KONNECT VHTS",
        "group": "eutelsat",
        "lat": 0.04935960076298932,
        "lon": -147.9337671932189,
        "alt_km": 35778.686552994855,
        "timestamp": "2025-12-24T07:45:05.870292+00:00",
        "meta_object_name": "EUTELSAT KONNECT VHTS",
        "meta_object_id": "2022-110A",
        "meta_epoch": "2025-12-22T14:53:22.017408",
        "meta_mean_motion": 1.00268229,
        "meta_eccentricity": 0.00023717,
        "meta_inclination": 0.0613,
        "meta_ra_of_asc_node": 98.5283,
        "meta_arg_of_pericenter": 147.5122,
        "meta_mean_anomaly": 71.4567,
        "meta_ephemeris_type": 0,
        "meta_classification_type": "U",
        "meta_norad_cat_id": 53765,
        "meta_element_set_no": 999,
        "meta_rev_at_epoch": 505,
        "meta_bstar": 0,
        "meta_mean_motion_dot": 3.8e-07,
        "meta_mean_motion_ddot": 0,
        "tle_line1": "1 53765U 22110A   25356.62039372  .00000038  00000+0  00000+0 0  9994",
        "tle_line2": "2 53765   0.0613  98.5283 0002371 147.5122  71.4567  1.00268229  5058"
      },
      "geometry": {
        "type": "Point",
        "coordinates": [
          -147.9337671932189,
          0.04935960076298932
        ]
      }
    },
    {
      "type": "Feature",
      "properties": {
        "norad_id": 54048,
        "name": "EUTELSAT HOTBIRD 13F",
        "group": "eutelsat",
        "lat": -0.05147837185351635,
        "lon": -137.64558529308965,
        "alt_km": 35793.354337218356,
        "timestamp": "2025-12-24T07:45:05.870304+00:00",
        "meta_object_name": "EUTELSAT HOTBIRD 13F",
        "meta_object_id": "2022-134A",
        "meta_epoch": "2025-12-21T21:49:07.084128",
        "meta_mean_motion": 1.00271763,
        "meta_eccentricity": 0.00022808,
        "meta_inclination": 0.0525,
        "meta_ra_of_asc_node": 292.4073,
        "meta_arg_of_pericenter": 71.4737,
        "meta_mean_anomaly": 67.1177,
        "meta_ephemeris_type": 0,
        "meta_classification_type": "U",
        "meta_norad_cat_id": 54048,
        "meta_element_set_no": 999,
        "meta_rev_at_epoch": 1160,
        "meta_bstar": 0,
        "meta_mean_motion_dot": 1.09e-06,
        "meta_mean_motion_ddot": 0,
        "tle_line1": "1 54048U 22134A   25355.90910977  .00000109  00000+0  00000+0 0  9993",
        "tle_line2": "2 54048   0.0525 292.4073 0002280  71.4737  67.1177  1.00271763 11607"
      },
      "geometry": {
        "type": "Point",
        "coordinates": [
          -137.64558529308965,
          -0.05147837185351635
        ]
      }
    },
    {
      "type": "Feature",
      "properties": {
        "norad_id": 54225,
        "name": "EUTELSAT HOTBIRD 13G",
        "group": "eutelsat",
        "lat": -0.02460748563398532,
        "lon": -137.51445909141802,
        "alt_km": 35778.94562059073,
        "timestamp": "2025-12-24T07:45:05.870315+00:00",
        "meta_object_name": "EUTELSAT HOTBIRD 13G",
        "meta_object_id": "2022-146A",
        "meta_epoch": "2025-12-22T04:02:38.705856",
        "meta_mean_motion": 1.00287196,
        "meta_eccentricity": 6.245e-05,
        "meta_inclination": 0.0535,
        "meta_ra_of_asc_node": 228.1743,
        "meta_arg_of_pericenter": 347.6873,
        "meta_mean_anomaly": 308.7697,
        "meta_ephemeris_type": 0,
        "meta_classification_type": "U",
        "meta_norad_cat_id": 54225,
        "meta_element_set_no": 999,
        "meta_rev_at_epoch": 569,
        "meta_bstar": 0,
        "meta_mean_motion_dot": 1.11e-06,
        "meta_mean_motion_ddot": 0,
        "tle_line1": "1 54225U 22146A   25356.16850354  .00000111  00000+0  00000+0 0  9997",
        "tle_line2": "2 54225   0.0535 228.1743 0000624 347.6873 308.7697  1.00287196  5694"
      },
      "geometry": {
        "type": "Point",
        "coordinates": [
          -137.51445909141802,
          -0.02460748563398532
        ]
      }
    }
  ]
}